{
  "norad_id": 47816,
  "name": "STARLINK-2399",
  "history": [
    {
      "epoch": "2026-03-28T13:39:31.668192Z",
      "apogee_km": 548.0105967527625,
      "perigee_km": 546.35406036937,
      "latitude_deg": 4.651916182381186e-05,
      "longitude_deg": 135.99690134610216,
      "height_km": 547.8728836241096,
      "semi_major_axis_km": 6925.319328561066,
      "eccentricity": 0.0001196,
      "inclination_deg": 53.0556,
      "raan_deg": 166.8665,
      "arg_perigee_deg": 76.9345,
      "mean_anomaly_deg": 283.1778,
      "mean_motion_rev_day": 15.06409537
    },
    {
      "epoch": "2026-03-29T05:34:55.985088Z",
      "apogee_km": 548.687532295824,
      "perigee_km": 545.7290247928295,
      "latitude_deg": 4.179599060761535e-05,
      "longitude_deg": -106.48867431358796,
      "height_km": 547.6843977637064,
      "semi_major_axis_km": 6925.345278544327,
      "eccentricity": 0.0002136,
      "inclination_deg": 53.055,
      "raan_deg": 163.8862,
      "arg_perigee_deg": 74.2974,
      "mean_anomaly_deg": 285.8251,
      "mean_motion_rev_day": 15.0640107
    },
    {
      "epoch": "2026-03-29T21:30:19.845792Z",
      "apogee_km": 548.1640801799349,
      "perigee_km": 546.2706882912844,
      "latitude_deg": -2.6664079921752675e-05,
      "longitude_deg": 11.03200874645911,
      "height_km": 547.976051893485,
      "semi_major_axis_km": 6925.354384235609,
      "eccentricity": 0.0001367,
      "inclination_deg": 53.0551,
      "raan_deg": 160.9103,
      "arg_perigee_deg": 82.7898,
      "mean_anomaly_deg": 277.3246,
      "mean_motion_rev_day": 15.06398099
    },
    {
      "epoch": "2026-03-29T21:30:19.846656Z",
      "apogee_km": 548.1640801799349,
      "perigee_km": 546.2706882912844,
      "latitude_deg": -2.666407992220499e-05,
      "longitude_deg": 11.032005136602066,
      "height_km": 547.976051893483,
      "semi_major_axis_km": 6925.354384235609,
      "eccentricity": 0.0001367,
      "inclination_deg": 53.0551,
      "raan_deg": 160.9103,
      "arg_perigee_deg": 82.7898,
      "mean_anomaly_deg": 277.3246,
      "mean_motion_rev_day": 15.06398099
    },
    {
      "epoch": "2026-03-30T13:25:43.024800Z",
      "apogee_km": 548.0886395424204,
      "perigee_km": 546.2757294862977,
      "latitude_deg": 1.3726643788086424e-05,
      "longitude_deg": 128.55342175809082,
      "height_km": 548.0252169471088,
      "semi_major_axis_km": 6925.319184514358,
      "eccentricity": 0.00013089,
      "inclination_deg": 53.055,
      "raan_deg": 157.9322,
      "arg_perigee_deg": 87.8183,
      "mean_anomaly_deg": 272.2956,
      "mean_motion_rev_day": 15.06409584
    },
    {
      "epoch": "2026-03-30T21:23:25.195776Z",
      "apogee_km": 548.1654689333591,
      "perigee_km": 546.2615515710813,
      "latitude_deg": 5.7009312607388356e-05,
      "longitude_deg": 7.31136613265204,
      "height_km": 548.0476780350727,
      "semi_major_axis_km": 6925.35051025222,
      "eccentricity": 0.00013746,
      "inclination_deg": 53.0545,
      "raan_deg": 156.4428,
      "arg_perigee_deg": 87.3979,
      "mean_anomaly_deg": 272.7168,
      "mean_motion_rev_day": 15.06399363
    },
    {
      "epoch": "2026-03-31T08:32:11.927904Z",
      "apogee_km": 548.1963837155672,
      "perigee_km": 546.2545120851764,
      "latitude_deg": -4.466169477260206e-05,
      "longitude_deg": -162.42568935593542,
      "height_km": 548.0800713433346,
      "semi_major_axis_km": 6925.362447900372,
      "eccentricity": 0.0001402,
      "inclination_deg": 53.0547,
      "raan_deg": 154.3583,
      "arg_perigee_deg": 88.6569,
      "mean_anomaly_deg": 271.458,
      "mean_motion_rev_day": 15.06395468
    },
    {
      "epoch": "2026-04-01T10:00:49.320000Z",
      "apogee_km": 548.0612856574835,
      "perigee_km": 546.3188733642792,
      "latitude_deg": 2.335050434694264e-06,
      "longitude_deg": 169.60634141101664,
      "height_km": 548.0311851127171,
      "semi_major_axis_km": 6925.327079510881,
      "eccentricity": 0.0001258,
      "inclination_deg": 53.0545,
      "raan_deg": 149.5924,
      "arg_perigee_deg": 87.602,
      "mean_anomaly_deg": 272.5113,
      "mean_motion_rev_day": 15.06407008
    },
    {
      "epoch": "2026-04-02T09:53:55.171104Z",
      "apogee_km": 548.0929675579364,
      "perigee_km": 546.3239573130113,
      "latitude_deg": -1.2222156339554178e-05,
      "longitude_deg": 165.88293153379763,
      "height_km": 548.1280635699925,
      "semi_major_axis_km": 6925.345462435474,
      "eccentricity": 0.00012772,
      "inclination_deg": 53.0547,
      "raan_deg": 145.1243,
      "arg_perigee_deg": 92.7249,
      "mean_anomaly_deg": 267.3886,
      "mean_motion_rev_day": 15.0640101
    },
    {
      "epoch": "2026-04-03T12:58:04.301184Z",
      "apogee_km": 548.1658115730925,
      "perigee_km": 546.1400257660835,
      "latitude_deg": 2.6000342658242738e-05,
      "longitude_deg": 113.66892583454946,
      "height_km": 548.274663988544,
      "semi_major_axis_km": 6925.289918669588,
      "eccentricity": 0.00014626,
      "inclination_deg": 53.055,
      "raan_deg": 140.06,
      "arg_perigee_deg": 103.9605,
      "mean_anomaly_deg": 256.1547,
      "mean_motion_rev_day": 15.06419133
    },
    {
      "epoch": "2026-04-04T09:40:06.185568Z",
      "apogee_km": 548.1871141025094,
      "perigee_km": 546.3095036375689,
      "latitude_deg": 6.196159436953299e-05,
      "longitude_deg": 158.4385604283402,
      "height_km": 548.1449444105343,
      "semi_major_axis_km": 6925.385308870039,
      "eccentricity": 0.00013556,
      "inclination_deg": 53.0526,
      "raan_deg": 136.1876,
      "arg_perigee_deg": 91.1861,
      "mean_anomaly_deg": 268.9284,
      "mean_motion_rev_day": 15.06388009
    },
    {
      "epoch": "2026-04-05T12:44:17.102400Z",
      "apogee_km": 548.2400246133839,
      "perigee_km": 546.2525781135591,
      "latitude_deg": 2.321288900512037e-05,
      "longitude_deg": 106.21893008573757,
      "height_km": 548.3332902926128,
      "semi_major_axis_km": 6925.383301363471,
      "eccentricity": 0.00014349,
      "inclination_deg": 53.0538,
      "raan_deg": 131.1252,
      "arg_perigee_deg": 102.1837,
      "mean_anomaly_deg": 257.9313,
      "mean_motion_rev_day": 15.06388664
    },
    {
      "epoch": "2026-04-05T19:06:26.728416Z",
      "apogee_km": 548.2126953520128,
      "perigee_km": 546.2777435598964,
      "latitude_deg": 1.3697720655212396e-05,
      "longitude_deg": 9.226034571480897,
      "height_km": 548.2416004406106,
      "semi_major_axis_km": 6925.382219455954,
      "eccentricity": 0.0001397,
      "inclination_deg": 53.0537,
      "raan_deg": 129.934,
      "arg_perigee_deg": 97.0712,
      "mean_anomaly_deg": 263.0436,
      "mean_motion_rev_day": 15.06389017
    }
  ]
}